STARLINK-4414           
1 53213U 22084AA  26068.87547742 -.00001178  00000+0 -87125-4 0  9991
2 53213  97.6036 130.3813 0002993 194.6003 165.5136 15.01269066199868
LEMUR-2-ARIANNA         
1 62699U 25009CU  26068.74082662  .00009084  00000+0  71790-3 0  9992
2 62699  97.6996 151.0445 0004640 147.3928 212.7583 15.00881954 62634
