[{"OBJECT_NAME":"STARLINK-4414","OBJECT_ID":"2022-084AA","EPOCH":"2026-03-09T21:00:41.249088","MEAN_MOTION":15.01269066,"ECCENTRICITY":0.00029931,"INCLINATION":97.6036,"RA_OF_ASC_NODE":130.3813,"ARG_OF_PERICENTER":194.6003,"MEAN_ANOMALY":165.5136,"EPHEMERIS_TYPE":0,"CLASSIFICATION_TYPE":"U","NORAD_CAT_ID":53213,"ELEMENT_SET_NO":999,"REV_AT_EPOCH":19986,"BSTAR":-8.7124721e-5,"MEAN_MOTION_DOT":-1.178e-5,"MEAN_MOTION_DDOT":0},{"OBJECT_NAME":"LEMUR-2-ARIANNA","OBJECT_ID":"2025-009CU","EPOCH":"2026-03-09T17:46:47.419968","MEAN_MOTION":15.00881954,"ECCENTRICITY":0.00046401,"INCLINATION":97.6996,"RA_OF_ASC_NODE":151.0445,"ARG_OF_PERICENTER":147.3928,"MEAN_ANOMALY":212.7583,"EPHEMERIS_TYPE":0,"CLASSIFICATION_TYPE":"U","NORAD_CAT_ID":62699,"ELEMENT_SET_NO":999,"REV_AT_EPOCH":6263,"BSTAR":0.00071790312,"MEAN_MOTION_DOT":9.084e-5,"MEAN_MOTION_DDOT":0}]
